ORBCOMM FM05 [-]        
1 25117U 97084F   23260.22362621  .00002620  00000+0  84496-3 0  9994
2 25117  45.0151 183.9658 0003259 283.1922  76.8564 14.41376033348283
ORBCOMM FM06 [+]        
1 25118U 97084G   23260.27462882  .00002679  00000+0  86417-3 0  9999
2 25118  45.0147 183.8694 0002809 299.9812 194.7520 14.41309518349200
ORBCOMM FM07 [-]        
1 25119U 97084H   23260.16002464  .00002450  00000+0  79490-3 0  9994
2 25119  45.0142 184.8444 0003418 268.1270  91.9188 14.41254290349184
ORBCOMM FM03 [-]        
1 25158U 98007B   23260.49644121  .00001661  00000+0  66769-3 0  9999
2 25158 107.9827 266.8382 0049781 282.5830  76.9744 14.31247816332562
ORBCOMM FM04 [+]        
1 25159U 98007C   23260.52816369  .00001509  00000+0  60945-3 0  9990
2 25159 107.9808 269.6820 0045274 280.5608  79.0432 14.31524563332738
ORBCOMM FM17 [-]        
1 25413U 98046A   23260.52395835  .00001484  00000+0  59626-3 0  9992
2 25413  44.9968  24.6066 0002974 234.9143 125.1424 14.32310034311521
ORBCOMM FM18 [-]        
1 25414U 98046B   23260.18346998  .00001685  00000+0  63802-3 0  9995
2 25414  44.9957 318.0594 0005551 288.8711  71.1534 14.34780815312364
ORBCOMM FM19 [+]        
1 25415U 98046C   23260.20148060  .00001603  00000+0  61096-3 0  9992
2 25415  44.9964 319.0963 0004669 277.6920 118.6114 14.34661778312335
